LANDSAT 4               
1 13367U 82072A   08210.56793666  .00000370  00000-0  33353-4 0  7504
2 13367  98.2056 101.4449 0016949 336.9403  23.1057 15.02085140395935
TDRS 1                  
1 13969U 83026B   08211.03737744 -.00000308  00000-0  10000-3 0  6807
2 13969  13.0893  11.6736 0022646 222.9301  37.1305  1.00273089 65759
LANDSAT 5               
1 14780U 84021A   08211.10172382  .00000047  00000-0  20497-4 0  6030
2 14780  98.1462 276.8149 0007484  31.2886 328.8761 14.57144285298331
ERBS                    
1 15354U 84108B   08210.91268850  .00000526  00000-0  42766-4 0  8978
2 15354  56.9892  49.6974 0017459 176.7868 183.3249 15.15558902303048
TDRS 3                  
1 19548U 88091B   08208.69779244 -.00000194  00000-0  10000-3 0   977
2 19548  11.2051  43.1100 0016105 311.6554 286.0390  1.00272380 59876
TDRS 4                  
1 19883U 89021B   08208.95557189 -.00000283  00000-0  10000-3 0  3921
2 19883   9.7773  55.4677 0003695  71.8802 115.8664  1.00272216243457
HST                     
1 20580U 90037B   08209.98654350  .00000294  00000-0  98892-5 0  1878
2 20580  28.4684  57.1161 0003662  99.4994 260.6010 15.00395332801118
TDRS 5                  
1 21639U 91054B   08205.40981514  .00000102  00000-0  10000-3 0  2638
2 21639   9.0934  59.4735 0002051  58.8090 160.1678  1.00283322 62164
UARS                    
1 21701U 91063B   08210.56780360  .00002194  00000-0  38837-4 0  4259
2 21701  56.9762 340.6859 0076744 260.8883  98.3486 15.52282013928923
TOPEX/POSEIDON          
1 22076U 92052A   08211.17235988 -.00000038  00000-0  10000-3 0  2203
2 22076  66.0388  21.6621 0007708 267.3816  92.6317 12.80943143746878
TDRS 6                  
1 22314U 93003B   08209.60207382  .00000077  00000-0  10000-3 0  3266
2 22314   8.4376  62.6090 0003532  28.2723 257.6654  1.00274893 56923
TDRS 7                  
1 23613U 95035B   08208.27320799  .00000120  00000-0  10000-3 0  3524
2 23613  10.3253  51.7307 0002536  36.7152 163.6918  1.00280719 47726
XTE                     
1 23757U 95074A   08210.25563550  .00000686  00000-0  83518-5 0  6651
2 23757  22.9816 182.8730 0007879 254.2320 105.7304 15.26828130696199
TRMM                    
1 25063U 97074A   08210.68062600  .00041182  00000-0  57672-3 0  8335
2 25063  34.9683 318.2090 0001496 215.8562 142.2211 15.55715285609678
ETS 7                   
1 25064U 97074B   08210.60915339  .00000163  00000-0  78214-5 0  5893
2 25064  34.9616 274.1715 0002910 265.8342  94.2040 15.24829896591588
ISS (ZARYA)             
1 25544U 98067A   08211.19877315  .00006090  00000-0  48647-4 0  9474
2 25544  51.6414 160.4195 0009944   8.6450 186.8090 15.72711471555146
LANDSAT 7               
1 25682U 99020A   08211.20668121 -.00000037  00000-0  18121-5 0  6908
2 25682  98.1900 277.6218 0001608  91.0708 269.0674 14.57117827494043
FUSE 1                  
1 25791U 99035A   08210.98079783  .00000161  00000-0 -59230-5 0  2381
2 25791  24.9822 149.2600 0010713 120.4390 239.7180 14.41772865479708
TERRA                   
1 25994U 99068A   08211.22643841  .00000053  00000-0  21833-4 0  8081
2 25994  98.2096 284.7940 0000934  78.2833 281.8487 14.57118219458123
TDRS 8                  
1 26388U 00034A   08210.79097697 -.00000221  00000-0  10000-3 0  7739
2 26388   0.7777 144.7930 0004025 336.8116 198.8375  1.00264326 29684
EO 1                    
1 26619U 00075A   08211.22792219  .00000729  00000-0  15544-3 0  1837
2 26619  98.1467 277.2150 0008355 232.4844 127.5641 14.61771197409084
TIMED                   
1 26998U 01055B   08210.22441515 -.00000018  00000-0  21571-5 0   813
2 26998  74.0730 270.6802 0000635 139.6633 220.4413 14.84011591359464
TDRS 9                  
1 27389U 02011A   08210.27518183 -.00000277  00000-0  10000-3 0  2544
2 27389   3.0890 245.4961 0004464 224.1078 233.5825  1.00265998 24930
AQUA                    
1 27424U 02022A   08210.49095244 -.00000871  00000-0 -18324-3 0  8946
2 27424  98.2306 150.5801 0001366  68.6343 291.5123 14.57090967331621
TDRS 10                 
1 27566U 02055A   08208.95750356 -.00000257  00000-0  00000+0 0  9697
2 27566   1.8924 278.8231 0003274 225.8645 104.2111  1.00273723 20749
SORCE                   
1 27651U 03004A   08210.70173600  .00000009  00000-0  16814-4 0  6667
2 27651  39.9980 297.8830 0026678 259.9009  99.8768 14.82088257298282
GALEX                   
1 27783U 03017A   08211.05515567  .00000106  00000-0  22471-6 0  4561
2 27783  29.0006  65.4453 0004195 165.1318 194.9460 14.59691218280523
GP-B                    
1 28230U 04014A   08210.09428058  .00000039  00000-0  34363-5 0  2811
2 28230  89.9550 159.8592 0002235 100.6072 259.5533 14.75926274229978
AURA                    
1 28376U 04026A   08210.42801565  .00000049  00000-0  20916-4 0  2695
2 28376  98.2296 152.6784 0001387  65.8358 294.2989 14.57089514214667
SWIFT                   
1 28485U 04047A   08211.20548624  .00000399  00000-0 -45198-6 0   676
2 28485  20.5574 259.2777 0013929   3.4062 356.6504 14.92421426201355
THEMIS A                
1 30580U 07004A   08208.38224556 -.00000200  00000-0  00000-0 0  2873
2 30580  10.0950 283.5927 7582536  51.5692 354.5438  1.12608022  4887
THEMIS B                
1 30581U 07004B   08211.45833333 -.00002537  00000-0  00000-0 0  1879
2 30581  12.8332 127.0443 8989229 190.0531 358.2500  0.25523774  5244
THEMIS C                
1 30582U 07004C   08209.41666667 -.00000974  00000-0  00000-0 0  2815
2 30582   1.0808 264.4132 8620910  58.0968   0.4149  0.51193395  3301
THEMIS D                
1 30797U 07004D   08208.33333333 -.00000249  00000-0  00000+0 0  3628
2 30797   4.8896 282.0435 7542875  54.6043 342.9512  1.00278559  4475
THEMIS E                
1 30798U 07004E   08208.41666667 -.00000274  00000-0  00000+0 0  3715
2 30798   5.4171 281.1067 7544274  55.6110 348.6598  1.00278863  4612
C/NOFS                  
1 32765U 08017A   08210.39690549  .00002643  00000-0  89811-4 0   846
2 32765  13.0073 214.7861 0317985  18.0789 343.0542 14.80399559 15240
